COSMOS 2151             
1 21422U 91042A   25332.81133648  .00001786  00000+0  14274-3 0  9998
2 21422  82.4970 180.9245 0013651  44.6782 315.5539 14.99610561848079
SL-14 R/B               
1 21423U 91042B   25332.46554254  .00000512  00000+0  61891-4 0  9994
2 21423  82.4916 315.1101 0016196 209.1484 150.8828 14.81718220838080
ERS-1                   
1 21574U 91050A   25332.62528739  .00000334  00000+0  12162-3 0  9995
2 21574  98.7914 343.3269 0032675 140.7186 219.6380 14.39347684801196
ARIANE 40 R/B           
1 21610U 91050F   25332.63910107  .00000372  00000+0  12408-3 0  9996
2 21610  98.2186  23.5774 0003632  39.7255 320.4201 14.42794784804429
INTERCOSMOS 25          
1 21819U 91086A   25332.59995425  .00001519  00000+0  29964-3 0  9996
2 21819  82.6068  11.1266 1487374 334.8901  18.6398 12.11649836484442
SL-8 R/B                
1 21876U 92008B   25332.81281889  .00000148  00000+0  13624-3 0  9994
2 21876  82.9265 342.8067 0035874  57.8086 115.0307 13.75954341695547
SL-8 R/B                
1 21938U 92020B   25332.80269740  .00000070  00000+0  57426-4 0  9991
2 21938  82.9316 228.6656 0028043 217.6814 206.5308 13.75524273687267
USA 81                  
1 21949U 92023A   25332.85247203  .00000196  00000+0  65117-4 0  9996
2 21949  85.0091 189.5845 0002050  64.4434 295.6970 14.32319267 80354
COSMOS 2219             
1 22219U 92076A   25332.78896885 -.00000256  00000+0 -10961-3 0  9998
2 22219  71.0601 228.9943 0018680 346.2866  13.7747 14.14065508704114
SL-16 R/B               
1 22220U 92076B   25332.60557426  .00000263  00000+0  15492-3 0  9996
2 22220  71.0016  41.3050 0015070 252.5028 212.0732 14.16839161707512
COSMOS 2221             
1 22236U 92080A   25332.83590167  .00001686  00000+0  14903-3 0  9998
2 22236  82.5057  15.6327 0015006 165.6936 194.4714 14.95679656765710
SL-16 R/B               
1 22285U 92093B   25332.39783288 -.00000244  00000+0 -10072-3 0  9999
2 22285  71.0209 216.9013 0001959 115.7114 244.4211 14.15426784698829
