CCSDS_OMM_VERS = 2.0
CREATION_DATE  = 
ORIGINATOR     = 

OBJECT_NAME    = COSMOS 2151
OBJECT_ID      = 1991-042A
CENTER_NAME    = EARTH
REF_FRAME      = TEME
TIME_SYSTEM    = UTC
MEAN_ELEMENT_THEORY = SGP/SGP4

EPOCH          = 2025-11-28T19:28:19.471872
MEAN_MOTION    = 14.99610561
ECCENTRICITY   = .0013651
INCLINATION    = 82.4970
RA_OF_ASC_NODE = 180.9245
ARG_OF_PERICENTER = 44.6782
MEAN_ANOMALY   = 315.5539

EPHEMERIS_TYPE = 0
CLASSIFICATION_TYPE = U
NORAD_CAT_ID   = 21422
ELEMENT_SET_NO = 999
REV_AT_EPOCH   = 84807
BSTAR          = .14274E-3
MEAN_MOTION_DOT = .1786E-4
MEAN_MOTION_DDOT = 0

CCSDS_OMM_VERS = 2.0
CREATION_DATE  = 
ORIGINATOR     = 

OBJECT_NAME    = SL-14 R/B
OBJECT_ID      = 1991-042B
CENTER_NAME    = EARTH
REF_FRAME      = TEME
TIME_SYSTEM    = UTC
MEAN_ELEMENT_THEORY = SGP/SGP4

EPOCH          = 2025-11-28T11:10:22.875456
MEAN_MOTION    = 14.81718220
ECCENTRICITY   = .00161962
INCLINATION    = 82.4916
RA_OF_ASC_NODE = 315.1101
ARG_OF_PERICENTER = 209.1484
MEAN_ANOMALY   = 150.8828

EPHEMERIS_TYPE = 0
CLASSIFICATION_TYPE = U
NORAD_CAT_ID   = 21423
ELEMENT_SET_NO = 999
REV_AT_EPOCH   = 83808
BSTAR          = .61891124E-4
MEAN_MOTION_DOT = .512E-5
MEAN_MOTION_DDOT = 0

CCSDS_OMM_VERS = 2.0
CREATION_DATE  = 
ORIGINATOR     = 

OBJECT_NAME    = ERS-1
OBJECT_ID      = 1991-050A
CENTER_NAME    = EARTH
REF_FRAME      = TEME
TIME_SYSTEM    = UTC
MEAN_ELEMENT_THEORY = SGP/SGP4

EPOCH          = 2025-11-28T15:00:24.830496
MEAN_MOTION    = 14.39347684
ECCENTRICITY   = .00326759
INCLINATION    = 98.7914
RA_OF_ASC_NODE = 343.3269
ARG_OF_PERICENTER = 140.7186
MEAN_ANOMALY   = 219.6380

EPHEMERIS_TYPE = 0
CLASSIFICATION_TYPE = U
NORAD_CAT_ID   = 21574
ELEMENT_SET_NO = 999
REV_AT_EPOCH   = 80119
BSTAR          = .12161798E-3
MEAN_MOTION_DOT = .334E-5
MEAN_MOTION_DDOT = 0

CCSDS_OMM_VERS = 2.0
CREATION_DATE  = 
ORIGINATOR     = 

OBJECT_NAME    = ARIANE 40 R/B
OBJECT_ID      = 1991-050F
CENTER_NAME    = EARTH
REF_FRAME      = TEME
TIME_SYSTEM    = UTC
MEAN_ELEMENT_THEORY = SGP/SGP4

EPOCH          = 2025-11-28T15:20:18.332448
MEAN_MOTION    = 14.42794784
ECCENTRICITY   = .0003632
INCLINATION    = 98.2186
RA_OF_ASC_NODE = 23.5774
ARG_OF_PERICENTER = 39.7255
MEAN_ANOMALY   = 320.4201

EPHEMERIS_TYPE = 0
CLASSIFICATION_TYPE = U
NORAD_CAT_ID   = 21610
ELEMENT_SET_NO = 999
REV_AT_EPOCH   = 80442
BSTAR          = .12407736E-3
MEAN_MOTION_DOT = .372E-5
MEAN_MOTION_DDOT = 0

CCSDS_OMM_VERS = 2.0
CREATION_DATE  = 
ORIGINATOR     = 

OBJECT_NAME    = INTERCOSMOS 25
OBJECT_ID      = 1991-086A
CENTER_NAME    = EARTH
REF_FRAME      = TEME
TIME_SYSTEM    = UTC
MEAN_ELEMENT_THEORY = SGP/SGP4

EPOCH          = 2025-11-28T14:23:56.047200
MEAN_MOTION    = 12.11649836
ECCENTRICITY   = .14873746
INCLINATION    = 82.6068
RA_OF_ASC_NODE = 11.1266
ARG_OF_PERICENTER = 334.8901
MEAN_ANOMALY   = 18.6398

EPHEMERIS_TYPE = 0
CLASSIFICATION_TYPE = U
NORAD_CAT_ID   = 21819
ELEMENT_SET_NO = 999
REV_AT_EPOCH   = 48444
BSTAR          = .29964114E-3
MEAN_MOTION_DOT = .1519E-4
MEAN_MOTION_DDOT = 0

CCSDS_OMM_VERS = 2.0
CREATION_DATE  = 
ORIGINATOR     = 

OBJECT_NAME    = SL-8 R/B
OBJECT_ID      = 1992-008B
CENTER_NAME    = EARTH
REF_FRAME      = TEME
TIME_SYSTEM    = UTC
MEAN_ELEMENT_THEORY = SGP/SGP4

EPOCH          = 2025-11-28T19:30:27.552096
MEAN_MOTION    = 13.75954341
ECCENTRICITY   = .0035874
INCLINATION    = 82.9265
RA_OF_ASC_NODE = 342.8067
ARG_OF_PERICENTER = 57.8086
MEAN_ANOMALY   = 115.0307

EPHEMERIS_TYPE = 0
CLASSIFICATION_TYPE = U
NORAD_CAT_ID   = 21876
ELEMENT_SET_NO = 999
REV_AT_EPOCH   = 69554
BSTAR          = .13624E-3
MEAN_MOTION_DOT = .148E-5
MEAN_MOTION_DDOT = 0

CCSDS_OMM_VERS = 2.0
CREATION_DATE  = 
ORIGINATOR     = 

OBJECT_NAME    = SL-8 R/B
OBJECT_ID      = 1992-020B
CENTER_NAME    = EARTH
REF_FRAME      = TEME
TIME_SYSTEM    = UTC
MEAN_ELEMENT_THEORY = SGP/SGP4

EPOCH          = 2025-11-28T19:15:53.055360
MEAN_MOTION    = 13.75524273
ECCENTRICITY   = .0028043
INCLINATION    = 82.9316
RA_OF_ASC_NODE = 228.6656
ARG_OF_PERICENTER = 217.6814
MEAN_ANOMALY   = 206.5308

EPHEMERIS_TYPE = 0
CLASSIFICATION_TYPE = U
NORAD_CAT_ID   = 21938
ELEMENT_SET_NO = 999
REV_AT_EPOCH   = 68726
BSTAR          = .57426E-4
MEAN_MOTION_DOT = .7E-6
MEAN_MOTION_DDOT = 0

CCSDS_OMM_VERS = 2.0
CREATION_DATE  = 
ORIGINATOR     = 

OBJECT_NAME    = USA 81
OBJECT_ID      = 1992-023A
CENTER_NAME    = EARTH
REF_FRAME      = TEME
TIME_SYSTEM    = UTC
MEAN_ELEMENT_THEORY = SGP/SGP4

EPOCH          = 2025-11-28T20:27:33.583392
MEAN_MOTION    = 14.32319267
ECCENTRICITY   = .000205
INCLINATION    = 85.0091
RA_OF_ASC_NODE = 189.5845
ARG_OF_PERICENTER = 64.4434
MEAN_ANOMALY   = 295.6970

EPHEMERIS_TYPE = 0
CLASSIFICATION_TYPE = U
NORAD_CAT_ID   = 21949
ELEMENT_SET_NO = 999
REV_AT_EPOCH   = 8035
BSTAR          = .65117E-4
MEAN_MOTION_DOT = .196E-5
MEAN_MOTION_DDOT = 0

CCSDS_OMM_VERS = 2.0
CREATION_DATE  = 
ORIGINATOR     = 

OBJECT_NAME    = COSMOS 2219
OBJECT_ID      = 1992-076A
CENTER_NAME    = EARTH
REF_FRAME      = TEME
TIME_SYSTEM    = UTC
MEAN_ELEMENT_THEORY = SGP/SGP4

EPOCH          = 2025-11-28T18:56:06.908640
MEAN_MOTION    = 14.14065508
ECCENTRICITY   = .001868
INCLINATION    = 71.0601
RA_OF_ASC_NODE = 228.9943
ARG_OF_PERICENTER = 346.2866
MEAN_ANOMALY   = 13.7747

EPHEMERIS_TYPE = 0
CLASSIFICATION_TYPE = U
NORAD_CAT_ID   = 22219
ELEMENT_SET_NO = 999
REV_AT_EPOCH   = 70411
BSTAR          = -.10961E-3
MEAN_MOTION_DOT = -.256E-5
MEAN_MOTION_DDOT = 0

CCSDS_OMM_VERS = 2.0
CREATION_DATE  = 
ORIGINATOR     = 

OBJECT_NAME    = SL-16 R/B
OBJECT_ID      = 1992-076B
CENTER_NAME    = EARTH
REF_FRAME      = TEME
TIME_SYSTEM    = UTC
MEAN_ELEMENT_THEORY = SGP/SGP4

EPOCH          = 2025-11-28T14:32:01.616064
MEAN_MOTION    = 14.16839161
ECCENTRICITY   = .00150709
INCLINATION    = 71.0016
RA_OF_ASC_NODE = 41.3050
ARG_OF_PERICENTER = 252.5028
MEAN_ANOMALY   = 212.0732

EPHEMERIS_TYPE = 0
CLASSIFICATION_TYPE = U
NORAD_CAT_ID   = 22220
ELEMENT_SET_NO = 999
REV_AT_EPOCH   = 70751
BSTAR          = .15491718E-3
MEAN_MOTION_DOT = .263E-5
MEAN_MOTION_DDOT = 0

CCSDS_OMM_VERS = 2.0
CREATION_DATE  = 
ORIGINATOR     = 

OBJECT_NAME    = COSMOS 2221
OBJECT_ID      = 1992-080A
CENTER_NAME    = EARTH
REF_FRAME      = TEME
TIME_SYSTEM    = UTC
MEAN_ELEMENT_THEORY = SGP/SGP4

EPOCH          = 2025-11-28T20:03:41.904288
MEAN_MOTION    = 14.95679656
ECCENTRICITY   = .0015006
INCLINATION    = 82.5057
RA_OF_ASC_NODE = 15.6327
ARG_OF_PERICENTER = 165.6936
MEAN_ANOMALY   = 194.4714

EPHEMERIS_TYPE = 0
CLASSIFICATION_TYPE = U
NORAD_CAT_ID   = 22236
ELEMENT_SET_NO = 999
REV_AT_EPOCH   = 76571
BSTAR          = .14903E-3
MEAN_MOTION_DOT = .1686E-4
MEAN_MOTION_DDOT = 0

CCSDS_OMM_VERS = 2.0
CREATION_DATE  = 
ORIGINATOR     = 

OBJECT_NAME    = SL-16 R/B
OBJECT_ID      = 1992-093B
CENTER_NAME    = EARTH
REF_FRAME      = TEME
TIME_SYSTEM    = UTC
MEAN_ELEMENT_THEORY = SGP/SGP4

EPOCH          = 2025-11-28T09:32:52.760832
MEAN_MOTION    = 14.15426784
ECCENTRICITY   = .0001959
INCLINATION    = 71.0209
RA_OF_ASC_NODE = 216.9013
ARG_OF_PERICENTER = 115.7114
MEAN_ANOMALY   = 244.4211

EPHEMERIS_TYPE = 0
CLASSIFICATION_TYPE = U
NORAD_CAT_ID   = 22285
ELEMENT_SET_NO = 999
REV_AT_EPOCH   = 69882
BSTAR          = -.1007206E-3
MEAN_MOTION_DOT = -.244E-5
MEAN_MOTION_DDOT = 0

